ONEWEB-0428             
1 51629U 22012H   26071.03731911  .00000125  00000+0  32258-3 0  9991
2 51629  87.8770  55.6176 0001835  89.0113 271.1225 13.10369487196560
ONEWEB-0431             
1 51630U 22012J   26071.23639591  .00000382  00000+0  10572-2 0  9995
2 51630  87.8786  55.5635 0002486  89.8848 270.2564 13.10376565196644
ONEWEB-0434             
1 51631U 22012K   26070.90796973 -.00000603  00000+0 -17632-2 0  9999
2 51631  87.8775  55.6575 0001315  69.2600 290.8668 13.10373910196582
ONEWEB-0435             
1 51632U 22012L   26070.99249808 -.00000400  00000+0 -11828-2 0  9995
2 51632  87.8777  55.6311 0001868  98.2591 261.8748 13.10375676196585
ONEWEB-0436             
1 51633U 22012M   26071.24171439 -.00000909  00000+0 -23742-2 0  9991
2 51633  87.9161  25.0888 0002030  87.2666 272.8698 13.17659830200910
ONEWEB-0438             
1 51634U 22012N   26071.20496190 -.00000563  00000+0 -16497-2 0  9997
2 51634  87.8773  55.5896 0001735  80.6801 279.4523 13.10370239196645
ONEWEB-0439             
1 51635U 22012P   26071.20828782 -.00000578  00000+0 -16917-2 0  9997
2 51635  87.8771  55.5780 0001767  87.3052 272.8278 13.10372348196628
ONEWEB-0442             
1 51636U 22012Q   26071.23415003  .00000126  00000+0  29143-3 0  9992
2 51636  87.9154  25.1294 0001667  60.7015 299.4283 13.17648597200908
ONEWEB-0443             
1 51637U 22012R   26071.25353990  .00000123  00000+0  28386-3 0  9996
2 51637  87.9154  25.1285 0001530  84.6485 275.4821 13.17648452200951
ONEWEB-0444             
1 51638U 22012S   26070.96925292 -.00000283  00000+0 -84750-3 0  9990
2 51638  87.8772  55.6245 0001795  86.6869 273.4463 13.10370189196600
ONEWEB-0445             
1 51639U 22012T   26070.99083991 -.00000396  00000+0 -11714-2 0  9999
2 51639  87.8787  55.5994 0002062  82.4865 277.6497 13.10375842196610
ONEWEB-0446             
1 51640U 22012U   26071.04395154 -.00000206  00000+0 -62555-3 0  9995
2 51640  87.8771  55.6255 0001955  82.8378 277.2971 13.10369424196600
ONEWEB-0448             
1 51641U 22012V   26071.20164418 -.00000401  00000+0 -11856-2 0  9995
2 51641  87.8770  55.5924 0001837  87.3220 272.8117 13.10369931196591
ONEWEB-0449             
1 51642U 22012W   26070.97754664 -.00000462  00000+0 -13598-2 0  9999
2 51642  87.8780  55.6161 0001508  76.3057 283.8238 13.10371765196570
ONEWEB-0451             
1 51643U 22012X   26071.23836493  .00000056  00000+0  11222-3 0  9991
2 51643  87.9163  25.0848 0001738  78.5020 281.6307 13.17648688200891
ONEWEB-0452             
1 51644U 22012Y   26071.23668030 -.00000014  00000+0 -68405-4 0  9994
2 51644  87.9152  25.1314 0001524  81.5006 278.6298 13.17649491200900
ONEWEB-0456             
1 51646U 22012AA  26070.98751072 -.00000515  00000+0 -15103-2 0  9997
2 51646  87.8797  55.5926 0001854  90.6443 269.4897 13.10374345196615
