[{"OBJECT_NAME":"ONEWEB-0428","OBJECT_ID":"2022-012H","EPOCH":"2026-03-12T00:53:44.371104","MEAN_MOTION":13.10369487,"ECCENTRICITY":0.00018352,"INCLINATION":87.877,"RA_OF_ASC_NODE":55.6176,"ARG_OF_PERICENTER":89.0113,"MEAN_ANOMALY":271.1225,"EPHEMERIS_TYPE":0,"CLASSIFICATION_TYPE":"U","NORAD_CAT_ID":51629,"ELEMENT_SET_NO":999,"REV_AT_EPOCH":19656,"BSTAR":0.00032257767,"MEAN_MOTION_DOT":1.25e-6,"MEAN_MOTION_DDOT":0},{"OBJECT_NAME":"ONEWEB-0431","OBJECT_ID":"2022-012J","EPOCH":"2026-03-12T05:40:24.606624","MEAN_MOTION":13.10376565,"ECCENTRICITY":0.0002486,"INCLINATION":87.8786,"RA_OF_ASC_NODE":55.5635,"ARG_OF_PERICENTER":89.8848,"MEAN_ANOMALY":270.2564,"EPHEMERIS_TYPE":0,"CLASSIFICATION_TYPE":"U","NORAD_CAT_ID":51630,"ELEMENT_SET_NO":999,"REV_AT_EPOCH":19664,"BSTAR":0.0010572383,"MEAN_MOTION_DOT":3.82e-6,"MEAN_MOTION_DDOT":0},{"OBJECT_NAME":"ONEWEB-0434","OBJECT_ID":"2022-012K","EPOCH":"2026-03-11T21:47:28.584672","MEAN_MOTION":13.1037391,"ECCENTRICITY":0.0001315,"INCLINATION":87.8775,"RA_OF_ASC_NODE":55.6575,"ARG_OF_PERICENTER":69.26,"MEAN_ANOMALY":290.8668,"EPHEMERIS_TYPE":0,"CLASSIFICATION_TYPE":"U","NORAD_CAT_ID":51631,"ELEMENT_SET_NO":999,"REV_AT_EPOCH":19658,"BSTAR":-0.0017632,"MEAN_MOTION_DOT":-6.03e-6,"MEAN_MOTION_DDOT":0},{"OBJECT_NAME":"ONEWEB-0435","OBJECT_ID":"2022-012L","EPOCH":"2026-03-11T23:49:11.834112","MEAN_MOTION":13.10375676,"ECCENTRICITY":0.00018683,"INCLINATION":87.8777,"RA_OF_ASC_NODE":55.6311,"ARG_OF_PERICENTER":98.2591,"MEAN_ANOMALY":261.8748,"EPHEMERIS_TYPE":0,"CLASSIFICATION_TYPE":"U","NORAD_CAT_ID":51632,"ELEMENT_SET_NO":999,"REV_AT_EPOCH":19658,"BSTAR":-0.001182792,"MEAN_MOTION_DOT":-4.0e-6,"MEAN_MOTION_DDOT":0},{"OBJECT_NAME":"ONEWEB-0436","OBJECT_ID":"2022-012M","EPOCH":"2026-03-12T05:48:04.123296","MEAN_MOTION":13.1765983,"ECCENTRICITY":0.00020309,"INCLINATION":87.9161,"RA_OF_ASC_NODE":25.0888,"ARG_OF_PERICENTER":87.2666,"MEAN_ANOMALY":272.8698,"EPHEMERIS_TYPE":0,"CLASSIFICATION_TYPE":"U","NORAD_CAT_ID":51633,"ELEMENT_SET_NO":999,"REV_AT_EPOCH":20091,"BSTAR":-0.0023741787,"MEAN_MOTION_DOT":-9.09e-6,"MEAN_MOTION_DDOT":0},{"OBJECT_NAME":"ONEWEB-0438","OBJECT_ID":"2022-012N","EPOCH":"2026-03-12T04:55:08.708160","MEAN_MOTION":13.10370239,"ECCENTRICITY":0.00017351,"INCLINATION":87.8773,"RA_OF_ASC_NODE":55.5896,"ARG_OF_PERICENTER":80.6801,"MEAN_ANOMALY":279.4523,"EPHEMERIS_TYPE":0,"CLASSIFICATION_TYPE":"U","NORAD_CAT_ID":51634,"ELEMENT_SET_NO":999,"REV_AT_EPOCH":19664,"BSTAR":-0.0016497027,"MEAN_MOTION_DOT":-5.63e-6,"MEAN_MOTION_DDOT":0},{"OBJECT_NAME":"ONEWEB-0439","OBJECT_ID":"2022-012P","EPOCH":"2026-03-12T04:59:56.067648","MEAN_MOTION":13.10372348,"ECCENTRICITY":0.0001767,"INCLINATION":87.8771,"RA_OF_ASC_NODE":55.578,"ARG_OF_PERICENTER":87.3052,"MEAN_ANOMALY":272.8278,"EPHEMERIS_TYPE":0,"CLASSIFICATION_TYPE":"U","NORAD_CAT_ID":51635,"ELEMENT_SET_NO":999,"REV_AT_EPOCH":19662,"BSTAR":-0.0016916501,"MEAN_MOTION_DOT":-5.78e-6,"MEAN_MOTION_DDOT":0},{"OBJECT_NAME":"ONEWEB-0442","OBJECT_ID":"2022-012Q","EPOCH":"2026-03-12T05:37:10.562592","MEAN_MOTION":13.17648597,"ECCENTRICITY":0.00016678,"INCLINATION":87.9154,"RA_OF_ASC_NODE":25.1294,"ARG_OF_PERICENTER":60.7015,"MEAN_ANOMALY":299.4283,"EPHEMERIS_TYPE":0,"CLASSIFICATION_TYPE":"U","NORAD_CAT_ID":51636,"ELEMENT_SET_NO":999,"REV_AT_EPOCH":20090,"BSTAR":0.00029143372,"MEAN_MOTION_DOT":1.26e-6,"MEAN_MOTION_DDOT":0},{"OBJECT_NAME":"ONEWEB-0443","OBJECT_ID":"2022-012R","EPOCH":"2026-03-12T06:05:05.847360","MEAN_MOTION":13.17648452,"ECCENTRICITY":0.00015308,"INCLINATION":87.9154,"RA_OF_ASC_NODE":25.1285,"ARG_OF_PERICENTER":84.6485,"MEAN_ANOMALY":275.4821,"EPHEMERIS_TYPE":0,"CLASSIFICATION_TYPE":"U","NORAD_CAT_ID":51637,"ELEMENT_SET_NO":999,"REV_AT_EPOCH":20095,"BSTAR":0.0002838586,"MEAN_MOTION_DOT":1.23e-6,"MEAN_MOTION_DDOT":0},{"OBJECT_NAME":"ONEWEB-0444","OBJECT_ID":"2022-012S","EPOCH":"2026-03-11T23:15:43.452288","MEAN_MOTION":13.10370189,"ECCENTRICITY":0.0001795,"INCLINATION":87.8772,"RA_OF_ASC_NODE":55.6245,"ARG_OF_PERICENTER":86.6869,"MEAN_ANOMALY":273.4463,"EPHEMERIS_TYPE":0,"CLASSIFICATION_TYPE":"U","NORAD_CAT_ID":51638,"ELEMENT_SET_NO":999,"REV_AT_EPOCH":19660,"BSTAR":-0.0008475,"MEAN_MOTION_DOT":-2.83e-6,"MEAN_MOTION_DDOT":0},{"OBJECT_NAME":"ONEWEB-0445","OBJECT_ID":"2022-012T","EPOCH":"2026-03-11T23:46:48.568224","MEAN_MOTION":13.10375842,"ECCENTRICITY":0.0002062,"INCLINATION":87.8787,"RA_OF_ASC_NODE":55.5994,"ARG_OF_PERICENTER":82.4865,"MEAN_ANOMALY":277.6497,"EPHEMERIS_TYPE":0,"CLASSIFICATION_TYPE":"U","NORAD_CAT_ID":51639,"ELEMENT_SET_NO":999,"REV_AT_EPOCH":19661,"BSTAR":-0.0011714,"MEAN_MOTION_DOT":-3.96e-6,"MEAN_MOTION_DDOT":0},{"OBJECT_NAME":"ONEWEB-0446","OBJECT_ID":"2022-012U","EPOCH":"2026-03-12T01:03:17.413056","MEAN_MOTION":13.10369424,"ECCENTRICITY":0.00019552,"INCLINATION":87.8771,"RA_OF_ASC_NODE":55.6255,"ARG_OF_PERICENTER":82.8378,"MEAN_ANOMALY":277.2971,"EPHEMERIS_TYPE":0,"CLASSIFICATION_TYPE":"U","NORAD_CAT_ID":51640,"ELEMENT_SET_NO":999,"REV_AT_EPOCH":19660,"BSTAR":-0.000625555,"MEAN_MOTION_DOT":-2.06e-6,"MEAN_MOTION_DDOT":0},{"OBJECT_NAME":"ONEWEB-0448","OBJECT_ID":"2022-012V","EPOCH":"2026-03-12T04:50:22.057152","MEAN_MOTION":13.10369931,"ECCENTRICITY":0.00018373,"INCLINATION":87.877,"RA_OF_ASC_NODE":55.5924,"ARG_OF_PERICENTER":87.322,"MEAN_ANOMALY":272.8117,"EPHEMERIS_TYPE":0,"CLASSIFICATION_TYPE":"U","NORAD_CAT_ID":51641,"ELEMENT_SET_NO":999,"REV_AT_EPOCH":19659,"BSTAR":-0.0011856435,"MEAN_MOTION_DOT":-4.01e-6,"MEAN_MOTION_DDOT":0},{"OBJECT_NAME":"ONEWEB-0449","OBJECT_ID":"2022-012W","EPOCH":"2026-03-11T23:27:40.029696","MEAN_MOTION":13.10371765,"ECCENTRICITY":0.00015089,"INCLINATION":87.878,"RA_OF_ASC_NODE":55.6161,"ARG_OF_PERICENTER":76.3057,"MEAN_ANOMALY":283.8238,"EPHEMERIS_TYPE":0,"CLASSIFICATION_TYPE":"U","NORAD_CAT_ID":51642,"ELEMENT_SET_NO":999,"REV_AT_EPOCH":19657,"BSTAR":-0.0013598236,"MEAN_MOTION_DOT":-4.62e-6,"MEAN_MOTION_DDOT":0},{"OBJECT_NAME":"ONEWEB-0451","OBJECT_ID":"2022-012X","EPOCH":"2026-03-12T05:43:14.729952","MEAN_MOTION":13.17648688,"ECCENTRICITY":0.00017387,"INCLINATION":87.9163,"RA_OF_ASC_NODE":25.0848,"ARG_OF_PERICENTER":78.502,"MEAN_ANOMALY":281.6307,"EPHEMERIS_TYPE":0,"CLASSIFICATION_TYPE":"U","NORAD_CAT_ID":51643,"ELEMENT_SET_NO":999,"REV_AT_EPOCH":20089,"BSTAR":0.00011222442,"MEAN_MOTION_DOT":5.6e-7,"MEAN_MOTION_DDOT":0},{"OBJECT_NAME":"ONEWEB-0452","OBJECT_ID":"2022-012Y","EPOCH":"2026-03-12T05:40:49.177920","MEAN_MOTION":13.17649491,"ECCENTRICITY":0.00015242,"INCLINATION":87.9152,"RA_OF_ASC_NODE":25.1314,"ARG_OF_PERICENTER":81.5006,"MEAN_ANOMALY":278.6298,"EPHEMERIS_TYPE":0,"CLASSIFICATION_TYPE":"U","NORAD_CAT_ID":51644,"ELEMENT_SET_NO":999,"REV_AT_EPOCH":20090,"BSTAR":-6.8404719e-5,"MEAN_MOTION_DOT":-1.4e-7,"MEAN_MOTION_DDOT":0},{"OBJECT_NAME":"ONEWEB-0456","OBJECT_ID":"2022-012AA","EPOCH":"2026-03-11T23:42:00.926208","MEAN_MOTION":13.10374345,"ECCENTRICITY":0.0001854,"INCLINATION":87.8797,"RA_OF_ASC_NODE":55.5926,"ARG_OF_PERICENTER":90.6443,"MEAN_ANOMALY":269.4897,"EPHEMERIS_TYPE":0,"CLASSIFICATION_TYPE":"U","NORAD_CAT_ID":51646,"ELEMENT_SET_NO":999,"REV_AT_EPOCH":19661,"BSTAR":-0.0015103,"MEAN_MOTION_DOT":-5.15e-6,"MEAN_MOTION_DDOT":0}]
